{"type": "FeatureCollection", "features": [ {"type": "Feature", "properties": {"norad_id": 66509, "name": "STARLINK-35598", "group": "last-30-days", "lat": 41.447040854483774, "lon": -101.99233647010362, "alt_km": 409.49984037146714, "timestamp": "2025-12-08T13:49:30.576528+00:00", "meta": {"OBJECT_NAME": "STARLINK-35598", "OBJECT_ID": "2025-263AA", "EPOCH": "2025-12-08T06:00:02.999808", "MEAN_MOTION": 15.50571171, "ECCENTRICITY": 0.00014639, "INCLINATION": 43.0003, "RA_OF_ASC_NODE": 151.2944, "ARG_OF_PERICENTER": 265.3738, "MEAN_ANOMALY": 176.468, "EPHEMERIS_TYPE": 0, "CLASSIFICATION_TYPE": "U", "NORAD_CAT_ID": 66509, "ELEMENT_SET_NO": 999, "REV_AT_EPOCH": 491, "BSTAR": -0.00071979924, "MEAN_MOTION_DOT": -0.00042329, "MEAN_MOTION_DDOT": 0}, "tle": {"line1": "1 66509U 25263AA  25342.25003472 -.00042329  00000+0 -71980-3 0  9992", "line2": "2 66509  43.0003 151.2944 0001463 265.3738 176.4680 15.50571171  4911"}}, "geometry": {"type": "Point", "coordinates": [-101.99233647010362, 41.447040854483774]}}, {"type": "Feature", "properties": {"norad_id": 66510, "name": "STARLINK-35600", "group": "last-30-days", "lat": 42.45107588882716, "lon": -109.60369976594085, "alt_km": 409.36463044526863, "timestamp": "2025-12-08T13:49:30.576538+00:00", "meta": {"OBJECT_NAME": "STARLINK-35600", "OBJECT_ID": "2025-263AB", "EPOCH": "2025-12-08T06:00:02.999808", "MEAN_MOTION": 15.50570855, "ECCENTRICITY": 0.00014477, "INCLINATION": 43.0005, "RA_OF_ASC_NODE": 151.3094, "ARG_OF_PERICENTER": 269.4476, "MEAN_ANOMALY": 166.6405, "EPHEMERIS_TYPE": 0, "CLASSIFICATION_TYPE": "U", "NORAD_CAT_ID": 66510, "ELEMENT_SET_NO": 999, "REV_AT_EPOCH": 491, "BSTAR": -0.00067484084, "MEAN_MOTION_DOT": -0.00039719, "MEAN_MOTION_DDOT": 0}, "tle": {"line1": "1 66510U 25263AB  25342.25003472 -.00039719  00000+0 -67484-3 0  9997", "line2": "2 66510  43.0005 151.3094 0001447 269.4476 166.6405 15.50570855  4912"}}, "geometry": {"type": "Point", "coordinates": [-109.60369976594085, 42.45107588882716]}}, {"type": "Feature", "properties": {"norad_id": 66511, "name": "STARLINK-35444", "group": "last-30-days", "lat": 41.84400798766441, "lon": -104.54659690871989, "alt_km": 409.5585837084127, "timestamp": "2025-12-08T13:49:30.576548+00:00", "meta": {"OBJECT_NAME": "STARLINK-35444", "OBJECT_ID": "2025-263AC", "EPOCH": "2025-12-08T06:00:02.999808", "MEAN_MOTION": 15.50502974, "ECCENTRICITY": 0.00016128, "INCLINATION": 43.0002, "RA_OF_ASC_NODE": 151.3005, "ARG_OF_PERICENTER": 282.0446, "MEAN_ANOMALY": 157.8778, "EPHEMERIS_TYPE": 0, "CLASSIFICATION_TYPE": "U", "NORAD_CAT_ID": 66511, "ELEMENT_SET_NO": 999, "REV_AT_EPOCH": 491, "BSTAR": 0.0011875923, "MEAN_MOTION_DOT": 0.00069763, "MEAN_MOTION_DDOT": 0}, "tle": {"line1": "1 66511U 25263AC  25342.25003472  .00069763  00000+0  11876-2 0  9991", "line2": "2 66511  43.0002 151.3005 0001612 282.0446 157.8778 15.50502974  4916"}}, "geometry": {"type": "Point", "coordinates": [-104.54659690871989, 41.84400798766441]}}, {"type": "Feature", "properties": {"norad_id": 66512, "name": "STARLINK-35366", "group": "last-30-days", "lat": 41.010305100260844, "lon": -99.55527179121894, "alt_km": 409.69231345975277, "timestamp": "2025-12-08T13:49:30.576558+00:00", "meta": {"OBJECT_NAME": "STARLINK-35366", "OBJECT_ID": "2025-263AD", "EPOCH": "2025-12-08T06:00:02.999808", "MEAN_MOTION": 15.50501029, "ECCENTRICITY": 0.00016285, "INCLINATION": 43.0001, "RA_OF_ASC_NODE": 151.291, "ARG_OF_PERICENTER": 280.9379, "MEAN_ANOMALY": 162.8216, "EPHEMERIS_TYPE": 0, "CLASSIFICATION_TYPE": "U", "NORAD_CAT_ID": 66512, "ELEMENT_SET_NO": 999, "REV_AT_EPOCH": 491, "BSTAR": 0.0012816864, "MEAN_MOTION_DOT": 0.00075366, "MEAN_MOTION_DDOT": 0}, "tle": {"line1": "1 66512U 25263AD  25342.25003472  .00075366  00000+0  12817-2 0  9994", "line2": "2 66512  43.0001 151.2910 0001628 280.9379 162.8216 15.50501029  4912"}}, "geometry": {"type": "Point", "coordinates": [-99.55527179121894, 41.010305100260844]}}, {"type": "Feature", "properties": {"norad_id": 66513, "name": "STARLINK-35692", "group": "last-30-days", "lat": 42.17253741506658, "lon": -107.03998525695732, "alt_km": 409.43615159165074, "timestamp": "2025-12-08T13:49:30.576568+00:00", "meta": {"OBJECT_NAME": "STARLINK-35692", "OBJECT_ID": "2025-263AE", "EPOCH": "2025-12-08T06:00:02.999808", "MEAN_MOTION": 15.50573544, "ECCENTRICITY": 0.00015054, "INCLINATION": 43.0003, "RA_OF_ASC_NODE": 151.3045, "ARG_OF_PERICENTER": 266.6918, "MEAN_ANOMALY": 171.3137, "EPHEMERIS_TYPE": 0, "CLASSIFICATION_TYPE": "U", "NORAD_CAT_ID": 66513, "ELEMENT_SET_NO": 999, "REV_AT_EPOCH": 491, "BSTAR": -0.00076578141, "MEAN_MOTION_DOT": -0.00045, "MEAN_MOTION_DDOT": 0}, "tle": {"line1": "1 66513U 25263AE  25342.25003472 -.00045000  00000+0 -76578-3 0  9994", "line2": "2 66513  43.0003 151.3045 0001505 266.6918 171.3137 15.50573544  4917"}}, "geometry": {"type": "Point", "coordinates": [-107.03998525695732, 42.17253741506658]}}, {"type": "Feature", "properties": {"norad_id": 66514, "name": "SENTINEL-6B", "group": "last-30-days", "lat": -35.19631155289048, "lon": 152.82338887946807, "alt_km": 1320.7290374683516, "timestamp": "2025-12-08T13:49:30.576580+00:00", "meta": {"OBJECT_NAME": "SENTINEL-6B", "OBJECT_ID": "2025-264A", "EPOCH": "2025-12-08T06:33:03.191040", "MEAN_MOTION": 12.84031978, "ECCENTRICITY": 0.00210419, "INCLINATION": 66.0386, "RA_OF_ASC_NODE": 171.7349, "ARG_OF_PERICENTER": 268.4321, "MEAN_ANOMALY": 91.4286, "EPHEMERIS_TYPE": 0, "CLASSIFICATION_TYPE": "U", "NORAD_CAT_ID": 66514, "ELEMENT_SET_NO": 999, "REV_AT_EPOCH": 271, "BSTAR": 0.0001272869, "MEAN_MOTION_DOT": -3.1e-07, "MEAN_MOTION_DDOT": 0}, "tle": {"line1": "1 66514U 25264A   25342.27295360 -.00000031  00000+0  12729-3 0  9999", "line2": "2 66514  66.0386 171.7349 0021041 268.4321  91.4286 12.84031978  2712"}}, "geometry": {"type": "Point", "coordinates": [152.82338887946807, -35.19631155289048]}}, {"type": "Feature", "properties": {"norad_id": 66516, "name": "STARLINK-35924", "group": "last-30-days", "lat": -40.62774096047748, "lon": -34.570198145114155, "alt_km": 400.1863087522988, "timestamp": "2025-12-08T13:49:30.576591+00:00", "meta": {"OBJECT_NAME": "STARLINK-35924", "OBJECT_ID": "2025-265A", "EPOCH": "2025-12-08T06:00:02.999808", "MEAN_MOTION": 15.57918486, "ECCENTRICITY": 0.00010108, "INCLINATION": 43.0006, "RA_OF_ASC_NODE": 80.3313, "ARG_OF_PERICENTER": 263.8229, "MEAN_ANOMALY": 319.1101, "EPHEMERIS_TYPE": 0, "CLASSIFICATION_TYPE": "U", "NORAD_CAT_ID": 66516, "ELEMENT_SET_NO": 999, "REV_AT_EPOCH": 425, "BSTAR": -0.029206749, "MEAN_MOTION_DOT": -0.01969942, "MEAN_MOTION_DDOT": 0}, "tle": {"line1": "1 66516U 25265A   25342.25003472 -.01969942  00000+0 -29207-1 0  9995", "line2": "2 66516  43.0006  80.3313 0001010 263.8229 319.1101 15.57918486  4252"}}, "geometry": {"type": "Point", "coordinates": [-34.570198145114155, -40.62774096047748]}}, {"type": "Feature", "properties": {"norad_id": 66517, "name": "STARLINK-35937", "group": "last-30-days", "lat": -41.11112950977258, "lon": -32.12637161129086, "alt_km": 400.1816649788825, "timestamp": "2025-12-08T13:49:30.576603+00:00", "meta": {"OBJECT_NAME": "STARLINK-35937", "OBJECT_ID": "2025-265B", "EPOCH": "2025-12-08T06:00:02.999808", "MEAN_MOTION": 15.57919406, "ECCENTRICITY": 0.00010944, "INCLINATION": 43.0006, "RA_OF_ASC_NODE": 80.327, "ARG_OF_PERICENTER": 270.3022, "MEAN_ANOMALY": 314.5497, "EPHEMERIS_TYPE": 0, "CLASSIFICATION_TYPE": "U", "NORAD_CAT_ID": 66517, "ELEMENT_SET_NO": 999, "REV_AT_EPOCH": 427, "BSTAR": -0.029278084, "MEAN_MOTION_DOT": -0.01974276, "MEAN_MOTION_DDOT": 0}, "tle": {"line1": "1 66517U 25265B   25342.25003472 -.01974276  00000+0 -29278-1 0  9990", "line2": "2 66517  43.0006  80.3270 0001094 270.3022 314.5497 15.57919406  4273"}}, "geometry": {"type": "Point", "coordinates": [-32.12637161129086, -41.11112950977258]}}, {"type": "Feature", "properties": {"norad_id": 66518, "name": "STARLINK-35962", "group": "last-30-days", "lat": -41.541430174680194, "lon": -29.649031026605662, "alt_km": 400.2193229965469, "timestamp": "2025-12-08T13:49:30.576613+00:00", "meta": {"OBJECT_NAME": "STARLINK-35962", "OBJECT_ID": "2025-265C", "EPOCH": "2025-12-08T06:00:02.999808", "MEAN_MOTION": 15.57917003, "ECCENTRICITY": 0.00010596, "INCLINATION": 43.0001, "RA_OF_ASC_NODE": 80.3221, "ARG_OF_PERICENTER": 271.4839, "MEAN_ANOMALY": 315.2847, "EPHEMERIS_TYPE": 0, "CLASSIFICATION_TYPE": "U", "NORAD_CAT_ID": 66518, "ELEMENT_SET_NO": 999, "REV_AT_EPOCH": 427, "BSTAR": -0.02921681, "MEAN_MOTION_DOT": -0.01970472, "MEAN_MOTION_DDOT": 0}, "tle": {"line1": "1 66518U 25265C   25342.25003472 -.01970472  00000+0 -29217-1 0  9998", "line2": "2 66518  43.0001  80.3221 0001059 271.4839 315.2847 15.57917003  4272"}}, "geometry": {"type": "Point", "coordinates": [-29.649031026605662, -41.541430174680194]}}, {"type": "Feature", "properties": {"norad_id": 66519, "name": "STARLINK-35931", "group": "last-30-days", "lat": -41.918931107246436, "lon": -27.136284565017746, "alt_km": 400.2270465751926, "timestamp": "2025-12-08T13:49:30.576623+00:00", "meta": {"OBJECT_NAME": "STARLINK-35931", "OBJECT_ID": "2025-265D", "EPOCH": "2025-12-08T06:00:02.999808", "MEAN_MOTION": 15.57921131, "ECCENTRICITY": 0.0001035, "INCLINATION": 43.0003, "RA_OF_ASC_NODE": 80.3173, "ARG_OF_PERICENTER": 267.4105, "MEAN_ANOMALY": 321.2736, "EPHEMERIS_TYPE": 0, "CLASSIFICATION_TYPE": "U", "NORAD_CAT_ID": 66519, "ELEMENT_SET_NO": 999, "REV_AT_EPOCH": 427, "BSTAR": -0.029310526, "MEAN_MOTION_DOT": -0.01976267, "MEAN_MOTION_DDOT": 0}, "tle": {"line1": "1 66519U 25265D   25342.25003472 -.01976267  00000+0 -29311-1 0  9992", "line2": "2 66519  43.0003  80.3173 0001035 267.4105 321.2736 15.57921131  4277"}}, "geometry": {"type": "Point", "coordinates": [-27.136284565017746, -41.918931107246436]}}]}